IRIDIUM 155             
1 43573U 18061E   24061.47025745 -.00000036  00000+0 -20007-4 0  9998
2 43573  86.3944  46.7641 0001975  91.8459 268.2963 14.34218908293284
IRIDIUM 154             
1 43574U 18061F   24061.45124008  .00000305  00000+0  10193-3 0  9990
2 43574  86.3950  46.8639 0002223  83.2618 276.8830 14.34214654293337
IRIDIUM 163             
1 43575U 18061G   24061.50197028  .00000159  00000+0  49743-4 0  9990
2 43575  86.3948  46.7845 0002169  85.4982 274.6461 14.34219159293319
IRIDIUM 156             
1 43576U 18061H   24061.47660088  .00000337  00000+0  11325-3 0  9990
2 43576  86.3944  46.8014 0002227  91.3158 268.8293 14.34219040293307
IRIDIUM 164             
1 43577U 18061J   24061.45757409  .00000174  00000+0  55196-4 0  9997
2 43577  86.3950  46.8364 0002474  87.2210 272.9269 14.34218995293341
IRIDIUM 159             
1 43578U 18061K   24061.49562573  .00000228  00000+0  74177-4 0  9998
2 43578  86.3947  46.7749 0002182  85.1415 275.0029 14.34218701293314
IRIDIUM 180             
1 43922U 19002A   24061.42535815  .00000290  00000+0  96606-4 0  9999
2 43922  86.4023 343.7185 0002204  83.5613 276.5834 14.34217708268918
IRIDIUM 176             
1 43923U 19002B   24061.25307328  .00001510  00000+0  23536-3 0  9994
2 43923  86.6151 343.8187 0002656  87.8469 272.3052 14.72276774275962
IRIDIUM 168             
1 43924U 19002C   24061.48878304 -.00000271  00000+0 -10372-3 0  9996
2 43924  86.4021 343.7454 0002052  82.5584 277.5844 14.34216244268909
IRIDIUM 173             
1 43925U 19002D   24061.47608851  .00000401  00000+0  13609-3 0  9993
2 43925  86.4021 343.6742 0002124  82.4303 277.7134 14.34219952268887
IRIDIUM 169             
1 43926U 19002E   24061.38348129  .00000516  00000+0  16221-3 0  9993
2 43926  86.4266  15.3010 0001665 164.1745 195.9506 14.38607488269779
IRIDIUM 172             
1 43927U 19002F   24061.33021846 -.00000035  00000+0 -19409-4 0  9993
2 43927  86.4020 343.7404 0002120  82.9528 277.1909 14.34217575268876
IRIDIUM 175             
1 43928U 19002G   24061.45112400  .00001364  00000+0  21228-3 0  9999
2 43928  86.1537 322.9790 0002282  85.3905 274.7573 14.72263131275980
IRIDIUM 171             
1 43929U 19002H   24061.52049826 -.00000024  00000+0 -15598-4 0  9997
2 43929  86.4029 343.8744 0002230  84.8586 275.2864 14.34216232268892
IRIDIUM 170             
1 43930U 19002J   24061.25926348  .00001505  00000+0  23467-3 0  9998
2 43930  86.6151 343.8208 0002681  88.6792 271.4733 14.72272598275977
IRIDIUM 167             
1 43931U 19002K   24061.51415511 -.00000012  00000+0 -11204-4 0  9994
2 43931  86.4022 343.6787 0002171  84.8231 275.3213 14.34217326268898
IRIDIUM 181             
1 56726U 23068S   24061.38916304  .00000566  00000+0  16134-3 0  9996
2 56726  86.8644  32.1910 0002884  94.1895 265.9636 14.43598905 41581
IRIDIUM 177             
1 56727U 23068T   24061.33299214  .00001877  00000+0  24345-3 0  9995
2 56727  86.2021   6.5541 0002700  90.6393 269.5138 14.80240351 42422
IRIDIUM 174             
1 56728U 23068U   24061.32756827  .00002397  00000+0  31219-3 0  9999
2 56728  86.2027   6.6516 0002417  90.3269 269.8229 14.80202806 42423
IRIDIUM 178             
1 56729U 23068V   24061.38975845  .00002029  00000+0  26376-3 0  9999
2 56729  86.5818  18.9657 0002491  90.4088 269.7419 14.80205697 42431
IRIDIUM 179             
1 56730U 23068W   24061.38433386  .00001977  00000+0  25687-3 0  9995
2 56730  86.6823  21.7420 0002496  92.6776 267.4731 14.80204674 42439
